CCSDS_OMM_VERS,COMMENT,CREATION_DATE,ORIGINATOR,OBJECT_NAME,OBJECT_ID,CENTER_NAME,REF_FRAME,TIME_SYSTEM,MEAN_ELEMENT_THEORY,EPOCH,MEAN_MOTION,ECCENTRICITY,INCLINATION,RA_OF_ASC_NODE,ARG_OF_PERICENTER,MEAN_ANOMALY,EPHEMERIS_TYPE,CLASSIFICATION_TYPE,NORAD_CAT_ID,ELEMENT_SET_NO,REV_AT_EPOCH,BSTAR,MEAN_MOTION_DOT,MEAN_MOTION_DDOT,SEMIMAJOR_AXIS,PERIOD,APOAPSIS,PERIAPSIS,OBJECT_TYPE,RCS_SIZE,COUNTRY_CODE,LAUNCH_DATE,SITE,DECAY_DATE,FILE,GP_ID,TLE_LINE0,TLE_LINE1,TLE_LINE2
"2.0","GENERATED VIA SPACE-TRACK.ORG API","2019-08-04T14:30:13","18 SPCS","STARLINK","2019-029AC","EARTH","TEME","UTC","SGP4","2019-08-04T09:53:41.776512","15.05470549","0.00005200","52.9998","207.5245","215.2125","144.8828","0","U","44261","999","1105","0.00000191570000","-0.00000251","0.0000000000000","6928.198","95.651","550.423","549.703","PAYLOAD","LARGE","US","2019-05-24","AFETR","","2522580","136220359","0 STARLINK","1 44261U 19029AC  19216.41228908 -.00000251  00000-0  19157-5 0  9998","2 44261  52.9998 207.5245 0000520 215.2125 144.8828 15.05470549 11053"
"2.0","GENERATED VIA SPACE-TRACK.ORG API","2019-08-05T04:00:35","18 SPCS","STARLINK","2019-029AC","EARTH","TEME","UTC","SGP4","2019-08-04T11:29:17.653056","15.05470568","0.00005170","52.9998","207.2265","215.7729","144.3225","0","U","44261","999","1012","0.00000201850000","-0.00000249","0.0000000000000","6928.198","95.651","550.421","549.705","PAYLOAD","LARGE","US","2019-05-24","AFETR","","2522675","136261194","0 STARLINK","1 44261U 19029AC  19216.47867654 -.00000249 +00000-0 +20185-5 0  9991","2 44261 052.9998 207.2265 0000517 215.7729 144.3225 15.05470568010127"
"2.0","GENERATED VIA SPACE-TRACK.ORG API","2019-08-05T22:20:15","18 SPCS","STARLINK","2019-029AC","EARTH","TEME","UTC","SGP4","2019-08-05T11:23:15.808992","15.05470562","0.00004570","52.9998","202.7567","221.7196","138.3757","0","U","44261","999","1121","0.00000254070000","-0.00000242","0.0000000000000","6928.198","95.651","550.380","549.746","PAYLOAD","LARGE","US","2019-05-24","AFETR","","2523524","136279954","0 STARLINK","1 44261U 19029AC  19217.47448853 -.00000242  00000-0  25407-5 0  9993","2 44261  52.9998 202.7567 0000457 221.7196 138.3757 15.05470562 11218"
"2.0","GENERATED VIA SPACE-TRACK.ORG API","2019-08-06T01:30:12","18 SPCS","AEOLUS","2018-066A","EARTH","TEME","UTC","SGP4","2019-08-05T23:33:14.657760","15.86783876","0.00028360","96.7191","224.0987","85.6333","330.0533","0","U","43600","999","5518","0.00000000000000","-0.00000136","0.0000000000000","6689.443","90.749","313.205","309.411","PAYLOAD","LARGE","ESA","2018-08-22","FRGUI","","2523688","136283212","0 AEOLUS","1 43600U 18066A   19217.98141965 -.00000136  00000-0  00000+0 0  9997","2 43600  96.7191 224.0987 0002836  85.6333 330.0533 15.86783876 55182"
"2.0","GENERATED VIA SPACE-TRACK.ORG API","2019-08-06T14:20:17","18 SPCS","STARLINK","2019-029AC","EARTH","TEME","UTC","SGP4","2019-08-06T11:17:12.766560","15.05504290","0.00002800","52.9998","198.2870","214.7421","145.3549","0","U","44261","999","1136","0.00000049087000","-0.00000271","0.0000000000000","6928.095","95.649","550.154","549.766","PAYLOAD","LARGE","US","2019-05-24","AFETR","","2523954","136319409","0 STARLINK","1 44261U 19029AC  19218.47028665 -.00000271  00000-0  49087-6 0  9992","2 44261  52.9998 198.2870 0000280 214.7421 145.3549 15.05504290 11360"
"2.0","GENERATED VIA SPACE-TRACK.ORG API","2019-08-06T14:40:16","18 SPCS","AEOLUS","2018-066A","EARTH","TEME","UTC","SGP4","2019-08-06T12:05:02.454432","15.86850276","0.00040260","96.7179","224.6120","86.7879","69.2986","0","U","43600","999","5526","0.00012829000000","0.00032647","0.0000000000000","6689.256","90.745","313.814","308.428","PAYLOAD","LARGE","ESA","2018-08-22","FRGUI","","2524123","136323609","0 AEOLUS","1 43600U 18066A   19218.50350063  .00032647  00000-0  12829-3 0  9994","2 43600  96.7179 224.6120 0004026  86.7879  69.2986 15.86850276 55264"
"2.0","GENERATED VIA SPACE-TRACK.ORG API","2019-08-08T04:17:00","18 SPCS","AEOLUS","2018-066A","EARTH","TEME","UTC","SGP4","2019-08-06T22:15:08.381376","15.86873728","0.00039590","96.7185","225.0290","87.6418","327.1328","0","U","43600","999","5533","0.00012208000000","0.00031090","0.0000000000000","6689.190","90.744","313.704","308.407","PAYLOAD","LARGE","ESA","2018-08-22","FRGUI","","2532521","136497612","0 AEOLUS","1 43600U 18066A   19218.92718034 +.00031090 +00000-0 +12208-3 0  9998","2 43600 096.7185 225.0290 0003959 087.6418 327.1328 15.86873728055338"
"2.0","GENERATED VIA SPACE-TRACK.ORG API","2019-08-08T04:17:00","18 SPCS","STARLINK","2019-029AC","EARTH","TEME","UTC","SGP4","2019-08-07T09:35:33.190080","15.05504890","0.00001920","53.0000","194.1153","225.8509","134.2463","0","U","44261","999","1056","-0.00000176600000","-0.00000304","0.0000000000000","6928.093","95.648","550.091","549.825","PAYLOAD","LARGE","US","2019-05-24","AFETR","","2532521","136498164","0 STARLINK","1 44261U 19029AC  19219.39968970 -.00000304 +00000-0 -17660-5 0  9995","2 44261 053.0000 194.1153 0000192 225.8509 134.2463 15.05504890010566"
"2.0","GENERATED VIA SPACE-TRACK.ORG API","2019-08-08T06:20:18","18 SPCS","STARLINK","2019-029AC","EARTH","TEME","UTC","SGP4","2019-08-08T01:31:30.643968","15.05504892","0.00001550","53.0002","191.1353","247.6554","112.4418","0","U","44261","999","1160","-0.00000259070000","-0.00000316","0.0000000000000","6928.093","95.648","550.065","549.850","PAYLOAD","LARGE","US","2019-05-24","AFETR","","2532556","136498955","0 STARLINK","1 44261U 19029AC  19220.06354912 -.00000316  00000-0 -25907-5 0  9992","2 44261  53.0002 191.1353 0000155 247.6554 112.4418 15.05504892 11604"
"2.0","GENERATED VIA SPACE-TRACK.ORG API","2019-08-08T06:40:16","18 SPCS","AEOLUS","2018-066A","EARTH","TEME","UTC","SGP4","2019-08-08T02:56:51.335232","15.86932546","0.00037230","96.7175","226.2060","82.6870","317.8638","0","U","43600","999","5552","0.00010768000000","0.00027471","0.0000000000000","6689.025","90.741","313.381","308.400","PAYLOAD","LARGE","ESA","2018-08-22","FRGUI","","2532721","136503069","0 AEOLUS","1 43600U 18066A   19220.12281638  .00027471  00000-0  10768-3 0  9995","2 43600  96.7175 226.2060 0003723  82.6870 317.8638 15.86932546 55526"
"2.0","GENERATED VIA SPACE-TRACK.ORG API","2019-08-08T20:30:17","18 SPCS","AEOLUS","2018-066A","EARTH","TEME","UTC","SGP4","2019-08-08T15:27:48.121344","15.86946361","0.00034440","96.7123","226.7159","91.9429","45.7980","0","U","43600","999","5560","0.00009269100000","0.00023633","0.0000000000000","6688.986","90.740","313.155","308.548","PAYLOAD","LARGE","ESA","2018-08-22","FRGUI","","2533062","136556990","0 AEOLUS","1 43600U 18066A   19220.64430696  .00023633  00000-0  92691-4 0  9994","2 43600  96.7123 226.7159 0003444  91.9429  45.7980 15.86946361 55602"
"2.0","GENERATED VIA SPACE-TRACK.ORG API","2019-08-09T04:16:18","18 SPCS","STARLINK","2019-029AC","EARTH","TEME","UTC","SGP4","2019-08-08T22:14:15.226368","15.05506314","0.00000860","53.0004","187.2617","269.8779","90.2199","0","U","44261","999","1079","-0.00000144160000","-0.00000299","0.0000000000000","6928.088","95.648","550.013","549.894","PAYLOAD","LARGE","US","2019-05-24","AFETR","","2533199","136577937","0 STARLINK","1 44261U 19029AC  19220.92656512 -.00000299 +00000-0 -14416-5 0  9991","2 44261 053.0004 187.2617 0000086 269.8779 090.2199 15.05506314010792"
"2.0","GENERATED VIA SPACE-TRACK.ORG API","2019-08-09T14:20:15","18 SPCS","STARLINK","2019-029AC","EARTH","TEME","UTC","SGP4","2019-08-09T10:59:02.481504","15.05477594","0.00000980","53.0002","184.8780","59.9456","300.1541","0","U","44261","999","1181","0.00000004245200","-0.00000278","0.0000000000000","6928.177","95.650","550.109","549.974","PAYLOAD","LARGE","US","2019-05-24","AFETR","","2533484","136584246","0 STARLINK","1 44261U 19029AC  19221.45766761 -.00000278  00000-0  42452-7 0  9997","2 44261  53.0002 184.8780 0000098  59.9456 300.1541 15.05477594 11812"
"2.0","GENERATED VIA SPACE-TRACK.ORG API","2019-08-10T05:00:38","18 SPCS","STARLINK","2019-029AC","EARTH","TEME","UTC","SGP4","2019-08-09T12:34:38.332128","15.05477592","0.00001000","53.0003","184.5800","58.3865","301.7132","0","U","44261","999","1088","0.00000008300900","-0.00000277","0.0000000000000","6928.177","95.650","550.111","549.972","PAYLOAD","LARGE","US","2019-05-24","AFETR","","2533935","136631491","0 STARLINK","1 44261U 19029AC  19221.52405477 -.00000277 +00000-0 +83009-7 0  9991","2 44261 053.0003 184.5800 0000100 058.3865 301.7132 15.05477592010881"
"2.0","GENERATED VIA SPACE-TRACK.ORG API","2019-08-09T13:30:12","18 SPCS","AEOLUS","2018-066A","EARTH","TEME","UTC","SGP4","2019-08-09T12:34:55.211232","15.86636810","0.00046130","96.7185","227.5864","106.4253","14.0897","0","U","43600","999","5574","-0.00015940000000","-0.00040134","0.0000000000000","6689.856","90.758","314.807","308.635","PAYLOAD","LARGE","ESA","2018-08-22","FRGUI","","2533445","136583439","0 AEOLUS","1 43600U 18066A   19221.52425013 -.00040134  00000-0 -15940-3 0  9997","2 43600  96.7185 227.5864 0004613 106.4253  14.0897 15.86636810 55744"
"2.0","GENERATED VIA SPACE-TRACK.ORG API","2019-08-11T03:47:42","18 SPCS","STARLINK","2019-029AC","EARTH","TEME","UTC","SGP4","2019-08-10T07:41:48.497280","15.05478390","0.00001130","53.0001","181.0042","30.2845","329.8149","0","U","44261","999","1100","0.00000240190000","-0.00000244","0.0000000000000","6928.174","95.650","550.117","549.961","PAYLOAD","LARGE","US","2019-05-24","AFETR","","2534570","136683978","0 STARLINK","1 44261U 19029AC  19222.32070020 -.00000244 +00000-0 +24019-5 0  9990","2 44261 053.0001 181.0042 0000113 030.2845 329.8149 15.05478390011001"
